[{"OBJECT_NAME":"DAMPE","OBJECT_ID":"2015-078A","EPOCH":"2026-03-09T23:55:00.527232","MEAN_MOTION":15.30502084,"ECCENTRICITY":0.00138005,"INCLINATION":97.4588,"RA_OF_ASC_NODE":73.9866,"ARG_OF_PERICENTER":70.6942,"MEAN_ANOMALY":289.579,"EPHEMERIS_TYPE":0,"CLASSIFICATION_TYPE":"U","NORAD_CAT_ID":41173,"ELEMENT_SET_NO":999,"REV_AT_EPOCH":56937,"BSTAR":9.1158173e-5,"MEAN_MOTION_DOT":2.617e-5,"MEAN_MOTION_DDOT":0},{"OBJECT_NAME":"STARLINK-30378","OBJECT_ID":"2023-134S","EPOCH":"2026-03-09T22:00:01.999584","MEAN_MOTION":15.26726318,"ECCENTRICITY":0.00013972,"INCLINATION":43.0009,"RA_OF_ASC_NODE":193.3203,"ARG_OF_PERICENTER":269.7862,"MEAN_ANOMALY":323.1293,"EPHEMERIS_TYPE":0,"CLASSIFICATION_TYPE":"U","NORAD_CAT_ID":57787,"ELEMENT_SET_NO":999,"REV_AT_EPOCH":578,"BSTAR":0.00035472297,"MEAN_MOTION_DOT":9.263e-5,"MEAN_MOTION_DDOT":0}]
